SL-8 R/B                
1 15483U 85006B   26165.53240046  .00000190  00000+0  71732-4 0  9997
2 15483  74.0459  82.9493 0018784 330.5370 202.1350 14.37834046167946
SL-12 R/B(2)            
1 15772U 85042D   26165.56690459  .00000090  00000+0  61886-4 0  9996
2 15772  71.1080 243.0522 0036190 331.7272 127.7169 14.22005411128164
SL-14 R/B               
1 15945U 85069B   26165.54397936  .00000392  00000+0  41448-4 0  9996
2 15945  82.5268 293.8518 0017608 228.4427 131.5281 14.86513699187227
SL-16 R/B               
1 16182U 85097B   26165.64510583 -.00000235  00000+0 -93541-4 0  9996
2 16182  71.0035 296.4300 0005430 116.8028 254.1772 14.16610620100969
SL-14 R/B               
1 16496U 86006B   26165.49440065  .00000526  00000+0  53219-4 0  9994
2 16496  82.5262 168.6474 0075122 312.5636  46.9255 14.86943238163595
COSMOS 1743             
1 16719U 86034A   26165.52827523  .00046322  00000+0  43898-3 0  9990
2 16719  82.5270 331.5587 0003781 283.6449  76.4390 15.66731305195378
SL-14 R/B               
1 16792U 86046B   26165.59353564  .00000353  00000+0  37869-4 0  9996
2 16792  82.4816 348.6266 0021570 267.6364  92.2382 14.85669491140790
SL-14 R/B               
1 16882U 86055B   26165.58595215  .00000363  00000+0  38872-4 0  9992
2 16882  82.5205  35.5786 0019302  16.1742  45.2732 14.85721524133750
AJISAI (EGS)            
1 16908U 86061A   26165.65574174 -.00000105  00000+0 -55145-4 0  9995
2 16908  50.0065 155.1792 0011226 174.1804 299.1232 12.44516823480072
SL-14 R/B               
1 17567U 87024B   26165.52442036  .00000337  00000+0  35555-4 0  9992
2 17567  82.5280   1.7537 0016912 302.7924  57.1663 14.86211615102514
COSMOS 1833             
1 17589U 87027A   26165.63065491  .00000310  00000+0  19134-3 0  9992
2 17589  70.9173 122.2418 0022731  59.3750 300.9609 14.13048085 24011
SL-16 R/B               
1 17590U 87027B   26165.60450617 -.00000177  00000+0 -63787-4 0  9996
2 17590  71.0033  72.2710 0006427 315.1924  44.8680 14.17172432 29071
SL-14 R/B               
1 17912U 87038B   26165.56916512  .00000307  00000+0  32767-4 0  9999
2 17912  82.5010 205.5383 0018652 200.0159 160.0327 14.85443772 93616
COSMOS 1844             
1 17973U 87041A   26165.49070579 -.00000169  00000+0 -62250-4 0  9994
2 17973  70.8973 189.9955 0033025 239.4615 120.3246 14.14568524 17277
SL-14 R/B               
1 18153U 87055B   26165.52913316  .00000369  00000+0  39559-4 0  9995
2 18153  82.4995 257.7346 0021858  56.0009 304.3279 14.85709474 84318
COSMOS 1867             
1 18187U 87060A   26165.33878934 -.00000033  00000+0  25177-4 0  9993
2 18187  65.0116  36.0359 0016461 282.1365  77.7875 14.31515512 33776
SL-14 R/B               
1 18749U 88001B   26165.53095108  .00000357  00000+0  38424-4 0  9996
2 18749  82.5131 104.2725 0016468 279.1872  80.7481 14.85607908 56404
COSMOS 1933             
1 18958U 88020A   26165.46790220  .00003189  00000+0  15230-3 0  9993
2 18958  82.5116 155.1277 0003161 195.8620 164.2515 15.18696631 64916
SL-3 R/B                
1 19046U 88032B   26165.61130189  .00003671  00000+0  16845-3 0  9993
2 19046  97.5248 148.6546 0023723 254.6599 105.2015 15.20823510 66832
SL-16 R/B               
1 19120U 88039B   26165.58422037 -.00000105  00000+0 -27013-4 0  9996
2 19120  71.0140 223.6623 0022419 197.0101 163.0275 14.19629444972139
COSMOS 1953             
1 19210U 88050A   26165.20640132  .00007434  00000+0  25487-3 0  9998
2 19210  82.5086  61.0402 0011939 135.3677 224.8527 15.29940356 52531
SL-8 R/B                
1 19257U 88053B   26165.63216824  .00000147  00000+0  55917-4 0  9992
2 19257  74.0479 293.7670 0019161  90.0576 281.0776 14.38966556990547
COSMOS 1975             
1 19573U 88093A   26165.60252620  .00006701  00000+0  23429-3 0  9992
2 19573  82.5191  20.3025 0011093 180.4616 179.6615 15.29297301 34219
SL-14 R/B               
1 19574U 88093B   26165.51283037  .00000392  00000+0  42112-4 0  9990
2 19574  82.5309 311.1557 0022153  78.6915 349.9394 14.85740045 15394
SL-16 R/B               
1 19650U 88102B   26165.53304456 -.00000245  00000+0 -99680-4 0  9998
2 19650  71.0001 307.7240 0015929 229.1071 130.8674 14.16164996940608
INTERCOSMOS 24          
1 20261U 89080A   26165.39557419  .00000845  00000+0  23973-3 0  9992
2 20261  82.6067  41.4614 1188387  68.3768 303.9566 12.59657738678978
SL-14 R/B               
1 20262U 89080C   26165.60241304  .00000290  00000+0  86548-4 0  9992
2 20262  82.5930 110.9682 1228885 323.3171  28.9549 12.50569388672269
DELTA 1 R/B             
1 20323U 89089B   26165.52933177  .00000297  00000+0  81852-4 0  9996
2 20323  97.0636 357.5129 0069028 175.3448 184.8408 14.50729903909777
ARIANE 40 R/B           
1 20443U 90005H   26165.40413615  .00000209  00000+0  79902-4 0  9992
2 20443  98.2961 223.1066 0008800 273.9936  86.0247 14.39925963906727
DELTA 2 R/B(1)          
1 20453U 90008B   26164.94463102  .00080584  00000+0  60673-3 0  9998
2 20453  35.6001 257.3443 0065605  83.4720 277.3483 15.68352967941195
