OBJECT_NAME,OBJECT_ID,EPOCH,MEAN_MOTION,ECCENTRICITY,INCLINATION,RA_OF_ASC_NODE,ARG_OF_PERICENTER,MEAN_ANOMALY,EPHEMERIS_TYPE,CLASSIFICATION_TYPE,NORAD_CAT_ID,ELEMENT_SET_NO,REV_AT_EPOCH,BSTAR,MEAN_MOTION_DOT,MEAN_MOTION_DDOT
SL-8 R/B,1985-006B,2026-06-14T12:46:39.399744,14.37834046,.00187849,74.0459,82.9493,330.5370,202.1350,0,U,15483,999,16794,.71732022E-4,.19E-5,0
SL-12 R/B(2),1985-042D,2026-06-14T13:36:20.556576,14.22005411,.003619,71.1080,243.0522,331.7272,127.7169,0,U,15772,999,12816,.61885719E-4,.9E-6,0
SL-14 R/B,1985-069B,2026-06-14T13:03:19.816704,14.86513699,.00176089,82.5268,293.8518,228.4427,131.5281,0,U,15945,999,18722,.41448457E-4,.392E-5,0
SL-16 R/B,1985-097B,2026-06-14T15:28:57.143712,14.16610620,.00054301,71.0035,296.4300,116.8028,254.1772,0,U,16182,999,10096,-.93540626E-4,-.235E-5,0
SL-14 R/B,1986-006B,2026-06-14T11:51:56.216160,14.86943238,.0075122,82.5262,168.6474,312.5636,46.9255,0,U,16496,999,16359,.53219151E-4,.526E-5,0
COSMOS 1743,1986-034A,2026-06-14T12:40:42.979872,15.66731305,.00037816,82.5270,331.5587,283.6449,76.4390,0,U,16719,999,19537,.43898104E-3,.46322E-3,0
SL-14 R/B,1986-046B,2026-06-14T14:14:41.479296,14.85669491,.00215705,82.4816,348.6266,267.6364,92.2382,0,U,16792,999,14079,.37869434E-4,.353E-5,0
SL-14 R/B,1986-055B,2026-06-14T14:03:46.265760,14.85721524,.0019302,82.5205,35.5786,16.1742,45.2732,0,U,16882,999,13375,.38871751E-4,.363E-5,0
AJISAI (EGS),1986-061A,2026-06-14T15:44:16.086336,12.44516823,.00112263,50.0065,155.1792,174.1804,299.1232,0,U,16908,999,48007,-.55145334E-4,-.105E-5,0
SL-14 R/B,1987-024B,2026-06-14T12:35:09.919104,14.86211615,.00169124,82.5280,1.7537,302.7924,57.1663,0,U,17567,999,10251,.35555318E-4,.337E-5,0
COSMOS 1833,1987-027A,2026-06-14T15:08:08.584224,14.13048085,.0022731,70.9173,122.2418,59.3750,300.9609,0,U,17589,999,2401,.19133595E-3,.31E-5,0
SL-16 R/B,1987-027B,2026-06-14T14:30:29.333088,14.17172432,.00064276,71.0033,72.2710,315.1924,44.8680,0,U,17590,999,2907,-.63787066E-4,-.177E-5,0
SL-14 R/B,1987-038B,2026-06-14T13:39:35.866368,14.85443772,.00186523,82.5010,205.5383,200.0159,160.0327,0,U,17912,999,9361,.32767069E-4,.307E-5,0
COSMOS 1844,1987-041A,2026-06-14T11:46:36.980256,14.14568524,.00330254,70.8973,189.9955,239.4615,120.3246,0,U,17973,999,1727,-.6224951E-4,-.169E-5,0
SL-14 R/B,1987-055B,2026-06-14T12:41:57.105024,14.85709474,.00218582,82.4995,257.7346,56.0009,304.3279,0,U,18153,999,8431,.39558888E-4,.369E-5,0
COSMOS 1867,1987-060A,2026-06-14T08:07:51.398976,14.31515512,.00164614,65.0116,36.0359,282.1365,77.7875,0,U,18187,999,3377,.25176535E-4,-.33E-6,0
SL-14 R/B,1988-001B,2026-06-14T12:44:34.173312,14.85607908,.00164686,82.5131,104.2725,279.1872,80.7481,0,U,18749,999,5640,.3842387E-4,.357E-5,0
COSMOS 1933,1988-020A,2026-06-14T11:13:46.750080,15.18696631,.00031616,82.5116,155.1277,195.8620,164.2515,0,U,18958,999,6491,.15230241E-3,.3189E-4,0
SL-3 R/B,1988-032B,2026-06-14T14:40:16.483296,15.20823510,.00237239,97.5248,148.6546,254.6599,105.2015,0,U,19046,999,6683,.16844979E-3,.3671E-4,0
SL-16 R/B,1988-039B,2026-06-14T14:01:16.639968,14.19629444,.00224196,71.0140,223.6623,197.0101,163.0275,0,U,19120,999,97213,-.27012641E-4,-.105E-5,0
COSMOS 1953,1988-050A,2026-06-14T04:57:13.074048,15.29940356,.00119399,82.5086,61.0402,135.3677,224.8527,0,U,19210,999,5253,.25486628E-3,.7434E-4,0
SL-8 R/B,1988-053B,2026-06-14T15:10:19.335936,14.38966556,.00191617,74.0479,293.7670,90.0576,281.0776,0,U,19257,999,99054,.55916746E-4,.147E-5,0
COSMOS 1975,1988-093A,2026-06-14T14:27:38.263680,15.29297301,.00110933,82.5191,20.3025,180.4616,179.6615,0,U,19573,999,3421,.23428681E-3,.6701E-4,0
SL-14 R/B,1988-093B,2026-06-14T12:18:28.543968,14.85740045,.00221531,82.5309,311.1557,78.6915,349.9394,0,U,19574,999,1539,.42112424E-4,.392E-5,0
SL-16 R/B,1988-102B,2026-06-14T12:47:35.049984,14.16164996,.00159298,71.0001,307.7240,229.1071,130.8674,0,U,19650,999,94060,-.99679758E-4,-.245E-5,0
INTERCOSMOS 24,1989-080A,2026-06-14T09:29:37.610016,12.59657738,.11883878,82.6067,41.4614,68.3768,303.9566,0,U,20261,999,67897,.23973434E-3,.845E-5,0
SL-14 R/B,1989-080C,2026-06-14T14:27:28.486656,12.50569388,.12288858,82.5930,110.9682,323.3171,28.9549,0,U,20262,999,67226,.86547546E-4,.29E-5,0
DELTA 1 R/B,1989-089B,2026-06-14T12:42:14.264928,14.50729903,.00690288,97.0636,357.5129,175.3448,184.8408,0,U,20323,999,90977,.81852201E-4,.297E-5,0
ARIANE 40 R/B,1990-005H,2026-06-14T09:41:57.363360,14.39925963,.00088003,98.2961,223.1066,273.9936,86.0247,0,U,20443,999,90672,.79901613E-4,.209E-5,0
DELTA 2 R/B(1),1990-008B,2026-06-13T22:40:16.120128,15.68352967,.0065605,35.6001,257.3443,83.4720,277.3483,0,U,20453,999,94119,.60673E-3,.80584E-3,0
